     2              NAVIGATION DATA                         RINEX VERSION / TYPE
CCRINEXN V1.6.0 UX  CDDIS               16-NOV-15 17:31     PGM / RUN BY / DATE 
IGS BROADCAST EPHEMERIS FILE                                COMMENT             
    0.1676D-07 -0.7451D-08 -0.1192D-06  0.1192D-06          ION ALPHA           
    0.1208D+06 -0.1147D+06 -0.2621D+06  0.5243D+06          ION BETA            
    0.372529029846D-08 0.115463194561D-13   233472     1871 DELTA-UTC: A0,A1,T,W
    17                                                      LEAP SECONDS        
                                                            END OF HEADER       
 7 15 11 15  4  0  0.0 0.480316579342D-03-0.113686837722D-11 0.000000000000D+00
    0.280000000000D+02 0.121531250000D+03 0.437411077070D-08 0.272930978746D+01
    0.624731183052D-05 0.899718119763D-02 0.564567744732D-05 0.515369515991D+04
    0.144000000000D+05-0.745058059692D-07-0.189806839721D+01-0.121071934700D-06
    0.968363850024D+00 0.277187500000D+03-0.268180231720D+01-0.800854787388D-08
    0.307512809143D-09 0.100000000000D+01 0.187100000000D+04 0.000000000000D+00
    0.200000000000D+01 0.000000000000D+00-0.111758708954D-07 0.280000000000D+02
    0.118620000000D+05 0.400000000000D+01 0.000000000000D+00 0.000000000000D+00
 8 15 11 15  4  0  0.0-0.125323422253D-04-0.147792889038D-11 0.000000000000D+00
    0.170000000000D+02-0.961875000000D+02 0.423803347971D-08 0.708328353268D+00
   -0.497139990330D-05 0.152044813149D-02 0.101923942566D-04 0.515360859299D+04
    0.144000000000D+05-0.260770320892D-07 0.167055020318D+00-0.130385160446D-07
    0.961472796355D+00 0.186000000000D+03-0.168172404315D+01-0.789675791424D-08
   -0.109647423085D-09 0.100000000000D+01 0.187100000000D+04 0.000000000000D+00
    0.200000000000D+01 0.000000000000D+00 0.465661287308D-08 0.170000000000D+02
    0.720000000000D+04 0.000000000000D+00 0.000000000000D+00 0.000000000000D+00
10 15 11 15  4  0  0.0 0.162823125720D-04 0.164845914696D-10 0.000000000000D+00
    0.530000000000D+02-0.100000000000D+02 0.464983654150D-08-0.284924960730D+01
   -0.448897480965D-06 0.797275104560D-03 0.573135912418D-05 0.518127952385D+04
    0.144000000000D+05 0.745058059692D-08 0.226235432702D+01-0.149011611938D-07
    0.959369373242D+00 0.261156250000D+03-0.293930602649D+01-0.783175479545D-08
   -0.135719938994D-09 0.000000000000D+00 0.187100000000D+04 0.000000000000D+00
    0.200000000000D+01 0.630000000000D+02 0.325962901115D-08 0.530000000000D+02
    0.720000000000D+04 0.400000000000D+01 0.000000000000D+00 0.000000000000D+00
11 15 11 15  4  0  0.0-0.616210978478D-03-0.216004991671D-11 0.000000000000D+00
    0.270000000000D+02-0.628125000000D+01 0.567487923864D-08 0.282959210350D+01
   -0.294297933578D-06 0.162821172271D-01 0.102519989014D-04 0.515364183998D+04
    0.144000000000D+05 0.152736902237D-06 0.862275065835D+00-0.447034835815D-07
    0.894585147679D+00 0.141281250000D+03 0.148048744891D+01-0.823177145775D-08
    0.407159816983D-09 0.100000000000D+01 0.187100000000D+04 0.000000000000D+00
    0.200000000000D+01 0.000000000000D+00-0.121071934700D-07 0.270000000000D+02
    0.721800000000D+04 0.400000000000D+01 0.000000000000D+00 0.000000000000D+00
12 15 11 15  4  0  0.0 0.345486216247D-03 0.306954461848D-11 0.000000000000D+00
    0.650000000000D+02-0.465625000000D+02 0.408481300600D-08 0.230263222729D+01
   -0.256672501564D-05 0.554254278541D-02 0.243075191975D-05 0.515357544708D+04
    0.144000000000D+05-0.106170773506D-06-0.825493327648D+00-0.223517417908D-07
    0.990179978685D+00 0.347250000000D+03 0.642112131325D+00-0.802890586473D-08
   -0.176793078427D-09 0.000000000000D+00 0.187100000000D+04 0.000000000000D+00
    0.200000000000D+01 0.000000000000D+00-0.125728547573D-07 0.650000000000D+02
    0.720000000000D+04 0.400000000000D+01 0.000000000000D+00 0.000000000000D+00
13 15 11 15  4  0  0.0-0.164352823049D-03-0.284217094304D-11 0.000000000000D+00
    0.430000000000D+02 0.481562500000D+02 0.402123892931D-08-0.264829337692D+01
    0.248849391937D-05 0.463495671284D-02 0.112783163786D-04 0.515368998909D+04
    0.144000000000D+05 0.204890966415D-07-0.285767234790D+01 0.931322574616D-08
    0.973246713621D+00 0.166562500000D+03 0.203341257765D+01-0.760781689611D-08
   -0.303226916332D-09 0.000000000000D+00 0.187100000000D+04 0.000000000000D+00
    0.200000000000D+01 0.000000000000D+00-0.111758708954D-07 0.430000000000D+02
    0.720000000000D+04 0.400000000000D+01 0.000000000000D+00 0.000000000000D+00
14 15 11 15  4  0  0.0 0.216262415052D-04-0.238742359215D-11 0.000000000000D+00
    0.110000000000D+02 0.462812500000D+02 0.427767818247D-08-0.764162399208D+00
    0.254251062870D-05 0.838450458832D-02 0.108983367681D-04 0.515369067192D+04
    0.144000000000D+05-0.819563865662D-07-0.289341858439D+01 0.171363353729D-06
    0.965741240211D+00 0.176156250000D+03-0.194670035261D+01-0.791604402072D-08
   -0.242867259253D-09 0.100000000000D+01 0.187100000000D+04 0.000000000000D+00
    0.200000000000D+01 0.000000000000D+00-0.931322574616D-08 0.110000000000D+02
    0.721800000000D+04 0.400000000000D+01 0.000000000000D+00 0.000000000000D+00
15 15 11 15  4  0  0.0-0.282197259366D-03-0.193267624127D-11 0.000000000000D+00
    0.850000000000D+02 0.188750000000D+02 0.500663711796D-08-0.148541978254D+01
    0.772997736931D-06 0.775256264023D-02 0.101365149021D-04 0.515375232697D+04
    0.144000000000D+05 0.521540641785D-07-0.302313125584D+01-0.171363353729D-06
    0.932491052098D+00 0.164750000000D+03 0.430763210948D+00-0.811605235187D-08
   -0.304298389535D-09 0.000000000000D+00 0.187100000000D+04 0.000000000000D+00
    0.200000000000D+01 0.000000000000D+00-0.107102096081D-07 0.850000000000D+02
    0.720000000000D+04 0.400000000000D+01 0.000000000000D+00 0.000000000000D+00
16 15 11 15  4  0  0.0-0.664619728923D-04 0.363797880709D-11 0.000000000000D+00
    0.820000000000D+02-0.629375000000D+02 0.412160025262D-08 0.269636505226D+00
   -0.323727726936D-05 0.817743293010D-02 0.247359275818D-05 0.515365559196D+04
    0.144000000000D+05 0.782310962677D-07-0.806762570751D+00 0.447034835815D-07
    0.990720959939D+00 0.343656250000D+03 0.316111212375D+00-0.818712674098D-08
   -0.272868508926D-09 0.100000000000D+01 0.187100000000D+04 0.000000000000D+00
    0.200000000000D+01 0.000000000000D+00-0.102445483208D-07 0.820000000000D+02
    0.754800000000D+04 0.400000000000D+01 0.000000000000D+00 0.000000000000D+00
17 15 11 15  4  0  0.0-0.194021034986D-03-0.102318153950D-11 0.000000000000D+00
    0.680000000000D+02-0.102156250000D+03 0.411195699712D-08-0.703922668679D+00
   -0.526197254658D-05 0.106453840854D-01 0.102110207081D-04 0.515359803200D+04
    0.144000000000D+05-0.409781932831D-07 0.216960846753D+00 0.175088644028D-06
    0.974616433578D+00 0.192031250000D+03-0.199771776126D+01-0.797176102907D-08
   -0.857178564240D-10 0.100000000000D+01 0.187100000000D+04 0.000000000000D+00
    0.200000000000D+01 0.000000000000D+00-0.107102096081D-07 0.680000000000D+02
    0.720000000000D+04 0.000000000000D+00 0.000000000000D+00 0.000000000000D+00
18 15 11 15  4  0  0.0 0.453051179647D-03 0.375166564481D-11 0.000000000000D+00
    0.180000000000D+02-0.111875000000D+02 0.579059834452D-08 0.833533605872D+00
   -0.601634383202D-06 0.163682175335D-01 0.559538602829D-05 0.515363523865D+04
    0.144000000000D+05-0.227242708206D-06 0.224062173537D+01 0.428408384323D-07
    0.924812846099D+00 0.255062500000D+03-0.192955635274D+01-0.892430030436D-08
   -0.260367988229D-09 0.000000000000D+00 0.187100000000D+04 0.000000000000D+00
    0.200000000000D+01 0.000000000000D+00-0.111758708954D-07 0.180000000000D+02
    0.903000000000D+04 0.400000000000D+01 0.000000000000D+00 0.000000000000D+00
19 15 11 15  4  0  0.0-0.522767659277D-03-0.454747350886D-12 0.000000000000D+00
    0.900000000000D+02-0.983750000000D+02 0.395516464025D-08-0.267412291600D+01
   -0.512041151524D-05 0.113235173048D-01 0.109486281872D-04 0.515517465973D+04
    0.144000000000D+05 0.633299350738D-07 0.266091543118D+00-0.165775418282D-06
    0.971664693529D+00 0.171937500000D+03 0.659937600867D+00-0.761317409115D-08
    0.453590325023D-10 0.100000000000D+01 0.187100000000D+04 0.000000000000D+00
    0.200000000000D+01 0.000000000000D+00-0.149011611938D-07 0.900000000000D+02
    0.720000000000D+04 0.000000000000D+00 0.000000000000D+00 0.000000000000D+00
20 15 11 15  4  0  0.0 0.371062196791D-03 0.284217094304D-11 0.000000000000D+00
    0.350000000000D+02-0.218750000000D+01 0.561273379289D-08-0.141328228410D+01
    0.137835741043D-06 0.502496864647D-02 0.510364770889D-05 0.515365529060D+04
    0.144000000000D+05 0.372529029846D-07 0.218852272117D+01 0.856816768646D-07
    0.925998133048D+00 0.258593750000D+03 0.127094794754D+01-0.856928551657D-08
   -0.432160858377D-10 0.000000000000D+00 0.187100000000D+04 0.000000000000D+00
    0.200000000000D+01 0.000000000000D+00-0.838190317154D-08 0.350000000000D+02
    0.720000000000D+04 0.400000000000D+01 0.000000000000D+00 0.000000000000D+00
21 15 11 15  4  0  0.0-0.493515282869D-03-0.238742359215D-11 0.000000000000D+00
    0.310000000000D+02 0.593750000000D+01 0.508128308441D-08 0.175758439307D+01
   -0.113621354103D-06 0.226703721564D-01 0.862590968609D-05 0.515372356606D+04
    0.144000000000D+05-0.132247805595D-06 0.119752638738D+01-0.625848770142D-06
    0.934627465477D+00 0.201062500000D+03-0.186249307636D+01-0.818748389871D-08
    0.498592196938D-09 0.000000000000D+00 0.187100000000D+04 0.000000000000D+00
    0.200000000000D+01 0.000000000000D+00-0.116415321827D-07 0.310000000000D+02
    0.720000000000D+04 0.400000000000D+01 0.000000000000D+00 0.000000000000D+00
